CCSDS_OMM_VERS,COMMENT,CREATION_DATE,ORIGINATOR,OBJECT_NAME,OBJECT_ID,CENTER_NAME,REF_FRAME,TIME_SYSTEM,MEAN_ELEMENT_THEORY,EPOCH,MEAN_MOTION,ECCENTRICITY,INCLINATION,RA_OF_ASC_NODE,ARG_OF_PERICENTER,MEAN_ANOMALY,EPHEMERIS_TYPE,CLASSIFICATION_TYPE,NORAD_CAT_ID,ELEMENT_SET_NO,REV_AT_EPOCH,BSTAR,MEAN_MOTION_DOT,MEAN_MOTION_DDOT,SEMIMAJOR_AXIS,PERIOD,APOAPSIS,PERIAPSIS,OBJECT_TYPE,RCS_SIZE,COUNTRY_CODE,LAUNCH_DATE,SITE,DECAY_DATE,FILE,GP_ID,TLE_LINE0,TLE_LINE1,TLE_LINE2
"2.0","GENERATED VIA SPACE-TRACK.ORG API","2020-12-05T05:28:40","18 SPCS","COSMOS 2498","2014-028C","EARTH","TEME","UTC","SGP4","2020-12-04T13:40:13.615392","12.42890020","0.00204670","82.4451","294.5185","150.8101","209.4123","0","U","39763","999","29657","-0.00005191100000","0.00000003","0.0000000000000","7872.512","115.859","1510.490","1478.265","PAYLOAD","LARGE","CIS","2014-05-23","PKMTR","","2897577","166915194","0 COSMOS 2498","1 39763U 14028C   20339.56960203  .00000003  00000-0 -51911-4 0  9996","2 39763  82.4451 294.5185 0020467 150.8101 209.4123 12.42890020296571"
"2.0","GENERATED VIA SPACE-TRACK.ORG API","2020-12-04T05:56:09","18 SPCS","COSMOS 2498","2014-028C","EARTH","TEME","UTC","SGP4","2020-12-04T00:08:49.042752","12.42890127","0.00204480","82.4451","294.8713","152.0421","208.1762","0","U","39763","999","29650","0.00000500660000","0.00000011","0.0000000000000","7872.512","115.858","1510.475","1478.279","PAYLOAD","LARGE","CIS","2014-05-23","PKMTR","","2897059","166867593","0 COSMOS 2498","1 39763U 14028C   20339.00612318  .00000011  00000-0  50066-5 0  9995","2 39763  82.4451 294.8713 0020448 152.0421 208.1762 12.42890127296505"
"2.0","GENERATED VIA SPACE-TRACK.ORG API","2020-12-04T20:40:00","18 SPCS","COSMOS 1732","1986-015A","EARTH","TEME","UTC","SGP4","2020-12-03T16:49:50.377728","12.40987179","0.00257900","73.6080","134.3394","79.2131","281.1814","0","U","16593","999","57703","-0.00011859000000","-0.00000033","0.0000000000000","7880.558","116.036","1522.747","1482.099","PAYLOAD","LARGE","CIS","1986-02-11","PKMTR","","2897394","166880556","0 COSMOS 1732","1 16593U 86015A   20338.70127752 -.00000033  00000-0 -11859-3 0  9996","2 16593  73.6080 134.3394 0025790  79.2131 281.1814 12.40987179577038"
"2.0","GENERATED VIA SPACE-TRACK.ORG API","2020-12-04T04:46:55","18 SPCS","COSMOS 1732","1986-015A","EARTH","TEME","UTC","SGP4","2020-12-03T12:57:41.518368","12.40987205","0.00257910","73.6079","134.5554","79.4513","280.9434","0","U","16593","999","57701","-0.00012094000000","-0.00000034","0.0000000000000","7880.558","116.036","1522.747","1482.098","PAYLOAD","LARGE","CIS","1986-02-11","PKMTR","","2896992","166848116","0 COSMOS 1732","1 16593U 86015A   20338.54006387 -.00000034  00000-0 -12094-3 0  9991","2 16593  73.6079 134.5554 0025791  79.4513 280.9434 12.40987205577016"
"2.0","GENERATED VIA SPACE-TRACK.ORG API","2020-12-03T23:36:09","18 SPCS","COSMOS 1732","1986-015A","EARTH","TEME","UTC","SGP4","2020-12-03T12:57:41.518368","12.40987205","0.00257910","73.6079","134.5554","79.4513","280.9434","0","U","16593","999","57726","-0.00012094000000","-0.00000034","0.0000000000000","7880.558","116.036","1522.747","1482.098","PAYLOAD","LARGE","CIS","1986-02-11","PKMTR","","2896893","166841956","0 COSMOS 1732","1 16593U 86015A   20338.54006387 -.00000034  00000-0 -12094-3 0  9991","2 16593  73.6079 134.5554 0025791  79.4513 280.9434 12.40987205577263"
"2.0","GENERATED VIA SPACE-TRACK.ORG API","2020-12-04T04:46:55","18 SPCS","COSMOS 2498","2014-028C","EARTH","TEME","UTC","SGP4","2020-12-03T10:37:24.477888","12.42890124","0.00204510","82.4450","295.2244","153.3068","206.9068","0","U","39763","999","29643","0.00001417600000","0.00000012","0.0000000000000","7872.512","115.858","1510.477","1478.277","PAYLOAD","LARGE","CIS","2014-05-23","PKMTR","","2896992","166860307","0 COSMOS 2498","1 39763U 14028C   20338.44264442  .00000012  00000-0  14176-4 0  9995","2 39763  82.4450 295.2244 0020451 153.3068 206.9068 12.42890124296437"
"2.0","GENERATED VIA SPACE-TRACK.ORG API","2020-12-03T20:15:29","18 SPCS","COSMOS 2498","2014-028C","EARTH","TEME","UTC","SGP4","2020-12-03T04:49:39.635616","12.42890128","0.00204390","82.4449","295.3756","153.8476","206.3624","0","U","39763","999","29640","0.00001689900000","0.00000012","0.0000000000000","7872.512","115.858","1510.467","1478.286","PAYLOAD","LARGE","CIS","2014-05-23","PKMTR","","2896876","166813094","0 COSMOS 2498","1 39763U 14028C   20338.20115319  .00000012  00000-0  16899-4 0  9991","2 39763  82.4449 295.3756 0020439 153.8476 206.3624 12.42890128296401"
"2.0","GENERATED VIA SPACE-TRACK.ORG API","2020-12-03T20:15:29","18 SPCS","COSMOS 1732","1986-015A","EARTH","TEME","UTC","SGP4","2020-12-03T03:17:19.379040","12.40987188","0.00257880","73.6079","135.0955","80.0379","280.3573","0","U","16593","999","57696","-0.00014830000000","-0.00000037","0.0000000000000","7880.558","116.036","1522.745","1482.100","PAYLOAD","LARGE","CIS","1986-02-11","PKMTR","","2896876","166801403","0 COSMOS 1732","1 16593U 86015A   20338.13702985 -.00000037  00000-0 -14830-3 0  9996","2 16593  73.6079 135.0955 0025788  80.0379 280.3573 12.40987188576962"
"2.0","GENERATED VIA SPACE-TRACK.ORG API","2020-12-03T03:02:41","18 SPCS","COSMOS 1732","1986-015A","EARTH","TEME","UTC","SGP4","2020-12-02T17:36:57.233664","12.40987207","0.00257810","73.6079","135.6357","80.6376","279.7581","0","U","16593","999","57691","-0.00014412000000","-0.00000037","0.0000000000000","7880.558","116.036","1522.739","1482.106","PAYLOAD","LARGE","CIS","1986-02-11","PKMTR","","2896409","166770396","0 COSMOS 1732","1 16593U 86015A   20337.73399576 -.00000037  00000-0 -14412-3 0  9995","2 16593  73.6079 135.6357 0025781  80.6376 279.7581 12.40987207576918"
"2.0","GENERATED VIA SPACE-TRACK.ORG API","2020-12-02T22:36:09","18 SPCS","COSMOS 2498","2014-028C","EARTH","TEME","UTC","SGP4","2020-12-02T17:14:10.008960","12.42890250","0.00204590","82.4449","295.6781","154.9536","205.2538","0","U","39763","999","29634","0.00009550100000","0.00000023","0.0000000000000","7872.511","115.858","1510.483","1478.270","PAYLOAD","LARGE","CIS","2014-05-23","PKMTR","","2896315","166764416","0 COSMOS 2498","1 39763U 14028C   20337.71817140  .00000023  00000-0  95501-4 0  9996","2 39763  82.4449 295.6781 0020459 154.9536 205.2538 12.42890250296344"
"2.0","GENERATED VIA SPACE-TRACK.ORG API","2020-12-03T03:02:41","18 SPCS","COSMOS 2498","2014-028C","EARTH","TEME","UTC","SGP4","2020-12-02T17:14:10.008960","12.42890250","0.00204590","82.4449","295.6781","154.9536","205.2538","0","U","39763","999","29634","0.00009550100000","0.00000023","0.0000000000000","7872.511","115.858","1510.483","1478.270","PAYLOAD","LARGE","CIS","2014-05-23","PKMTR","","2896409","166780836","0 COSMOS 2498","1 39763U 14028C   20337.71817140  .00000023  00000-0  95501-4 0  9996","2 39763  82.4449 295.6781 0020459 154.9536 205.2538 12.42890250296344"
"2.0","GENERATED VIA SPACE-TRACK.ORG API","2020-12-02T19:24:44","18 SPCS","COSMOS 2498","2014-028C","EARTH","TEME","UTC","SGP4","2020-12-02T11:26:25.202976","12.42890271","0.00204530","82.4449","295.8295","155.4883","204.7176","0","U","39763","999","29631","0.00011236000000","0.00000025","0.0000000000000","7872.511","115.858","1510.478","1478.275","PAYLOAD","LARGE","CIS","2014-05-23","PKMTR","","2896233","166755506","0 COSMOS 2498","1 39763U 14028C   20337.47668059  .00000025  00000-0  11236-3 0  9996","2 39763  82.4449 295.8295 0020453 155.4883 204.7176 12.42890271296313"
"2.0","GENERATED VIA SPACE-TRACK.ORG API","2020-12-02T19:24:44","18 SPCS","COSMOS 1732","1986-015A","EARTH","TEME","UTC","SGP4","2020-12-02T04:04:26.236704","12.40987215","0.00257830","73.6078","136.3918","81.4655","278.9309","0","U","16593","999","57684","-0.00015414000000","-0.00000038","0.0000000000000","7880.558","116.036","1522.741","1482.104","PAYLOAD","LARGE","CIS","1986-02-11","PKMTR","","2896233","166743812","0 COSMOS 1732","1 16593U 86015A   20337.16974811 -.00000038  00000-0 -15414-3 0  9997","2 16593  73.6078 136.3918 0025783  81.4655 278.9309 12.40987215576849"
"2.0","GENERATED VIA SPACE-TRACK.ORG API","2020-12-02T04:55:40","18 SPCS","COSMOS 1732","1986-015A","EARTH","TEME","UTC","SGP4","2020-12-01T20:20:08.524896","12.40987217","0.00257810","73.6078","136.8239","81.9457","278.4511","0","U","16593","999","57680","-0.00014202000000","-0.00000036","0.0000000000000","7880.557","116.036","1522.739","1482.106","PAYLOAD","LARGE","CIS","1986-02-11","PKMTR","","2895815","166714584","0 COSMOS 1732","1 16593U 86015A   20336.84732089 -.00000036  00000-0 -14202-3 0  9992","2 16593  73.6078 136.8239 0025781  81.9457 278.4511 12.40987217576801"
"2.0","GENERATED VIA SPACE-TRACK.ORG API","2020-12-02T04:55:40","18 SPCS","COSMOS 2498","2014-028C","EARTH","TEME","UTC","SGP4","2020-12-01T18:03:10.712448","12.42890275","0.00204230","82.4449","296.2835","157.0949","203.1022","0","U","39763","999","29622","0.00012640000000","0.00000027","0.0000000000000","7872.511","115.858","1510.454","1478.298","PAYLOAD","LARGE","CIS","2014-05-23","PKMTR","","2895815","166726777","0 COSMOS 2498","1 39763U 14028C   20336.75220732  .00000027  00000-0  12640-3 0  9990","2 39763  82.4449 296.2835 0020423 157.0949 203.1022 12.42890275296223"
"2.0","GENERATED VIA SPACE-TRACK.ORG API","2020-12-01T14:16:09","18 SPCS","COSMOS 1732","1986-015A","EARTH","TEME","UTC","SGP4","2020-12-01T12:35:50.810496","12.40987243","0.00257800","73.6078","137.2560","82.4217","277.9753","0","U","16593","999","57701","-0.00012750000000","-0.00000034","0.0000000000000","7880.557","116.036","1522.738","1482.106","PAYLOAD","LARGE","CIS","1986-02-11","PKMTR","","2895435","166680929","0 COSMOS 1732","1 16593U 86015A   20336.52489364 -.00000034  00000-0 -12750-3 0  9996","2 16593  73.6078 137.2560 0025780  82.4217 277.9753 12.40987243577017"
